STARLINK-2622_new
1 18360C 21038H   21326.17517980 -.00000281  00000-0 -18829-4 0  3266
2 18360  53.0526 202.9405 0002102  62.8126 152.5326 15.06404911    12
STARLINK-2622_old
1 28360C 21038H   21325.10221329  .00009462  00000-0  63402-3 0  3250
2 28360  53.0525 207.7573 0002045  61.6782  91.7243 15.06385096    15
